OBJECT_NAME,OBJECT_ID,EPOCH,MEAN_MOTION,ECCENTRICITY,INCLINATION,RA_OF_ASC_NODE,ARG_OF_PERICENTER,MEAN_ANOMALY,EPHEMERIS_TYPE,CLASSIFICATION_TYPE,NORAD_CAT_ID,ELEMENT_SET_NO,REV_AT_EPOCH,BSTAR,MEAN_MOTION_DOT,MEAN_MOTION_DDOT
VELOX-CI,2015-077A,2026-06-01T09:37:07.211424,15.49226680,.00042597,14.9806,206.6825,356.7618,3.2680,0,U,41166,999,58027,.35580736E-3,.21268E-3,0
KENT RIDGE 1,2015-077B,2026-05-31T22:08:18.478176,15.23022815,.00083865,14.9811,26.9327,8.7098,351.3369,0,U,41167,999,57861,.16664618E-3,.4809E-4,0
DAMPE,2015-078A,2026-06-03T12:09:06.659712,15.30748754,.0013405,97.4552,159.9064,119.6410,240.6168,0,U,41173,999,58245,.52516E-4,.1486E-4,0
GSAT0209 (GALILEO 12),2015-079A,2026-06-02T08:58:40.612224,1.70473980,.00054869,55.8190,101.6681,338.3855,21.5417,0,U,41174,999,6452,0,.3E-7,0
GSAT0208 (GALILEO 11),2015-079B,2026-06-03T04:20:36.355776,1.70473818,.0004857,55.8180,101.6428,341.4145,18.5225,0,U,41175,999,6495,0,.8E-7,0
ORBCOMM FM114,2015-081A,2026-06-01T23:30:56.809152,14.58838571,.00015469,47.0052,73.9009,135.7645,224.3365,0,U,41179,999,55553,.16355792E-3,.602E-5,0
ORBCOMM FM110,2015-081D,2026-06-02T23:53:49.713792,14.58854978,.00032303,47.0024,68.5419,358.8742,1.2136,0,U,41182,999,55555,.19639955E-3,.757E-5,0
ORBCOMM FM118,2015-081E,2026-06-02T00:03:48.794112,14.58855670,.00036016,47.0044,73.5648,319.9456,40.1164,0,U,41183,999,55551,.77410128E-3,.349E-4,0
ORBCOMM FM112,2015-081F,2026-05-31T23:31:29.926272,14.58877938,.00026869,47.0004,346.8837,140.5031,219.6051,0,U,41184,999,55658,.21582961E-3,.849E-5,0
ORBCOMM FM113,2015-081G,2026-06-01T12:06:07.822944,14.58839578,.00013088,47.0021,344.7743,154.2176,205.8776,0,U,41185,999,55664,.1680085E-3,.623E-5,0
ORBCOMM FM108,2015-081J,2026-06-01T22:42:30.904992,14.58851287,.00021293,47.0049,254.2558,152.3962,207.7037,0,U,41187,999,55785,.23678195E-3,.948E-5,0
ORBCOMM FM117,2015-081K,2026-06-02T17:36:15.708096,14.58849437,.00027018,47.0011,249.1714,159.5688,200.5306,0,U,41188,999,55801,.21351104E-3,.838E-5,0
ORBCOMM FM116,2015-081L,2026-05-31T14:11:01.632768,14.58855941,.00016097,47.0037,349.0907,336.1788,23.9023,0,U,41189,999,55651,.24275461E-3,.976E-5,0
EXPRESS-AMU1,2015-082A,2026-06-03T12:04:04.447200,1.00272642,.0003153,0.0124,293.5858,144.3931,31.1166,0,U,41191,999,3813,0,.168E-5,0
GAOFEN-4,2015-083A,2026-06-03T12:23:55.044384,1.00270890,.0004287,0.3227,83.8210,109.3577,350.4823,0,U,41194,999,3839,0,-.323E-5,0
BELINTERSAT-1,2016-001A,2026-06-03T12:08:26.526912,1.00271472,.0002216,0.0431,145.7056,244.2864,95.5829,0,U,41238,999,3810,0,.119E-5,0
JASON-3,2016-002A,2026-06-03T11:42:49.745664,12.87627725,.0008593,66.0389,154.6363,273.3327,86.6709,0,U,41240,999,48548,-.1851E-4,-.67E-6,0
IRNSS-1E,2016-003A,2026-06-02T15:53:32.123040,1.00271881,.0017875,33.2040,59.9607,180.0237,1.3117,0,U,41241,999,3793,0,-.304E-5,0
EUTELSAT 9B,2016-005A,2026-06-03T08:30:54.838368,1.00271435,.0002203,0.0486,65.1068,337.9568,345.4647,0,U,41310,999,3797,0,.74E-6,0
NAVSTAR 76 (USA 266),2016-007A,2026-06-01T21:52:06.290688,2.00552626,.00963404,55.5151,90.0651,247.3878,111.5659,0,U,41328,999,7553,0,-.22E-6,0
COSMOS 2514 [GLONASS-M],2016-008A,2026-06-03T04:58:36.267744,2.13102753,.0010752,65.0306,313.4863,197.1885,162.7630,0,U,41330,999,8032,0,-.44E-6,0
SENTINEL-3A,2016-011A,2026-06-03T11:18:23.954112,14.26736025,.0001305,98.6252,222.0511,106.0370,254.0954,0,U,41335,999,53610,.77339E-4,.144E-5,0
HORYU-4,2016-012D,2026-06-01T10:26:11.976576,15.85409012,.00022929,30.9850,193.7734,171.6706,188.3991,0,U,41340,999,56830,.10080768E-2,.260233E-2,0
SES-9,2016-013A,2026-06-03T12:24:39.972384,1.00271739,.0002497,0.0102,342.2912,97.3702,106.7891,0,U,41380,999,3730,0,-.333E-5,0
EUTELSAT 65 WEST A,2016-014A,2026-06-03T11:35:07.223136,1.00268651,.0002538,0.0484,353.0995,79.1271,288.2819,0,U,41382,999,3738,0,-.264E-5,0
IRNSS-1F,2016-015A,2026-06-03T12:02:49.566048,1.00276017,.0016714,5.3149,97.0899,186.9954,181.0645,0,U,41384,999,3753,0,.169E-5,0
COSMOS 2515,2016-020A,2026-06-03T12:23:09.348288,15.07910990,.0023409,97.9754,169.4771,352.4461,7.6410,0,U,41394,999,55835,.23593E-3,.3573E-4,0
BEIDOU-2 IGSO-6,2016-021A,2026-06-03T00:14:10.131072,1.00262618,.00573369,60.2060,38.1812,231.6223,78.8867,0,U,41434,999,3733,0,-.146E-5,0
IRNSS-1G,2016-027A,2026-06-03T07:22:42.682944,1.00273260,.000742,5.1639,97.7935,351.5067,42.7287,0,U,41469,999,3704,0,-.323E-5,0
JCSAT-2B,2016-028A,2026-06-03T09:12:20.865312,1.00261322,.0002063,0.0175,344.2710,115.9779,83.6787,0,U,41471,999,3699,0,-.155E-5,0
YAOGAN-30 01,2016-029A,2026-06-03T12:46:43.434624,14.76253507,.0014097,97.9016,204.7250,278.8234,81.1380,0,U,41473,999,54165,.1256E-3,.82E-5,0
