VELOX-CI                
1 41166U 15077A   26152.40077791  .00021268  00000+0  35581-3 0  9992
2 41166  14.9806 206.6825 0004259 356.7618   3.2680 15.49226680580277
KENT RIDGE 1            
1 41167U 15077B   26151.92243609  .00004809  00000+0  16665-3 0  9996
2 41167  14.9811  26.9327 0008386   8.7098 351.3369 15.23022815578617
DAMPE                   
1 41173U 15078A   26154.50632708  .00001486  00000+0  52516-4 0  9997
2 41173  97.4552 159.9064 0013405 119.6410 240.6168 15.30748754582454
GSAT0209 (GALILEO 12)   
1 41174U 15079A   26153.37408116  .00000003  00000+0  00000+0 0  9997
2 41174  55.8190 101.6681 0005486 338.3855  21.5417  1.70473980 64524
GSAT0208 (GALILEO 11)   
1 41175U 15079B   26154.18097634  .00000008  00000+0  00000+0 0  9992
2 41175  55.8180 101.6428 0004857 341.4145  18.5225  1.70473818 64951
ORBCOMM FM114           
1 41179U 15081A   26152.97982418  .00000602  00000+0  16356-3 0  9992
2 41179  47.0052  73.9009 0001546 135.7645 224.3365 14.58838571555535
ORBCOMM FM110           
1 41182U 15081D   26153.99571428  .00000757  00000+0  19640-3 0  9994
2 41182  47.0024  68.5419 0003230 358.8742   1.2136 14.58854978555550
ORBCOMM FM118           
1 41183U 15081E   26153.00264808  .00003490  00000+0  77410-3 0  9994
2 41183  47.0044  73.5648 0003601 319.9456  40.1164 14.58855670555514
ORBCOMM FM112           
1 41184U 15081F   26151.98020748  .00000849  00000+0  21583-3 0  9998
2 41184  47.0004 346.8837 0002686 140.5031 219.6051 14.58877938556583
ORBCOMM FM113           
1 41185U 15081G   26152.50425721  .00000623  00000+0  16801-3 0  9995
2 41185  47.0021 344.7743 0001308 154.2176 205.8776 14.58839578556644
ORBCOMM FM108           
1 41187U 15081J   26152.94619103  .00000948  00000+0  23678-3 0  9994
2 41187  47.0049 254.2558 0002129 152.3962 207.7037 14.58851287557855
ORBCOMM FM117           
1 41188U 15081K   26153.73351514  .00000838  00000+0  21351-3 0  9996
2 41188  47.0011 249.1714 0002701 159.5688 200.5306 14.58849437558015
ORBCOMM FM116           
1 41189U 15081L   26151.59099112  .00000976  00000+0  24275-3 0  9993
2 41189  47.0037 349.0907 0001609 336.1788  23.9023 14.58855941556511
EXPRESS-AMU1            
1 41191U 15082A   26154.50282925  .00000168  00000+0  00000+0 0  9996
2 41191   0.0124 293.5858 0003153 144.3931  31.1166  1.00272642 38139
GAOFEN-4                
1 41194U 15083A   26154.51660931 -.00000323  00000+0  00000+0 0  9992
2 41194   0.3227  83.8210 0004287 109.3577 350.4823  1.00270890 38395
BELINTERSAT-1           
1 41238U 16001A   26154.50586258  .00000119  00000+0  00000+0 0  9992
2 41238   0.0431 145.7056 0002216 244.2864  95.5829  1.00271472 38101
JASON-3                 
1 41240U 16002A   26154.48807576 -.00000067  00000+0 -18510-4 0  9996
2 41240  66.0389 154.6363 0008593 273.3327  86.6709 12.87627725485487
IRNSS-1E                
1 41241U 16003A   26153.66217735 -.00000304  00000+0  00000+0 0  9992
2 41241  33.2040  59.9607 0017875 180.0237   1.3117  1.00271881 37934
EUTELSAT 9B             
1 41310U 16005A   26154.35480137  .00000074  00000+0  00000+0 0  9999
2 41310   0.0486  65.1068 0002203 337.9568 345.4647  1.00271435 37975
NAVSTAR 76 (USA 266)    
1 41328U 16007A   26152.91118392 -.00000022  00000+0  00000+0 0  9995
2 41328  55.5151  90.0651 0096340 247.3878 111.5659  2.00552626 75530
COSMOS 2514 [GLONASS-M] 
1 41330U 16008A   26154.20736421 -.00000044  00000+0  00000+0 0  9996
2 41330  65.0306 313.4863 0010752 197.1885 162.7630  2.13102753 80327
SENTINEL-3A             
1 41335U 16011A   26154.47111058  .00000144  00000+0  77339-4 0  9991
2 41335  98.6252 222.0511 0001305 106.0370 254.0954 14.26736025536109
HORYU-4                 
1 41340U 16012D   26152.43486084  .00260233  00000+0  10081-2 0  9992
2 41340  30.9850 193.7734 0002292 171.6706 188.3991 15.85409012568302
SES-9                   
1 41380U 16013A   26154.51712931 -.00000333  00000+0  00000+0 0  9992
2 41380   0.0102 342.2912 0002497  97.3702 106.7891  1.00271739 37309
EUTELSAT 65 WEST A      
1 41382U 16014A   26154.48272249 -.00000264  00000+0  00000+0 0  9997
2 41382   0.0484 353.0995 0002538  79.1271 288.2819  1.00268651 37383
IRNSS-1F                
1 41384U 16015A   26154.50196257  .00000169  00000+0  00000+0 0  9990
2 41384   5.3149  97.0899 0016714 186.9954 181.0645  1.00276017 37534
COSMOS 2515             
1 41394U 16020A   26154.51608042  .00003573  00000+0  23593-3 0  9996
2 41394  97.9754 169.4771 0023409 352.4461   7.6410 15.07910990558357
BEIDOU-2 IGSO-6         
1 41434U 16021A   26154.00983948 -.00000146  00000+0  00000+0 0  9995
2 41434  60.2060  38.1812 0057336 231.6223  78.8867  1.00262618 37334
IRNSS-1G                
1 41469U 16027A   26154.30743846 -.00000323  00000+0  00000+0 0  9990
2 41469   5.1639  97.7935 0007420 351.5067  42.7287  1.00273260 37045
JCSAT-2B                
1 41471U 16028A   26154.38357483 -.00000155  00000+0  00000+0 0  9993
2 41471   0.0175 344.2710 0002063 115.9779  83.6787  1.00261322 36996
YAOGAN-30 01            
1 41473U 16029A   26154.53244716  .00000820  00000+0  12560-3 0  9993
2 41473  97.9016 204.7250 0014097 278.8234  81.1380 14.76253507541650
